ORBCOMM FM33 [-]        
1 25983U 99065D   24052.51771771  .00001479  00000+0  53795-3 0  9997
2 25983  45.0282 124.0062 0008897 172.3107 203.7880 14.37336892266703
ORBCOMM FM36 [-]        
1 25984U 99065E   24052.71552267  .00001490  00000+0  56542-3 0  9993
2 25984  45.0376 207.2143 0002548  50.7851 309.3223 14.35204939265183
ORBCOMM FM35 [+]        
1 25985U 99065F   24052.73625223  .00001345  00000+0  51869-3 0  9995
2 25985  45.0386 209.5321 0003797 157.4643 202.6372 14.34842200265581
ORBCOMM FM34 [-]        
1 25986U 99065G   24052.70457893  .00001471  00000+0  56310-3 0  9995
2 25986  45.0381 210.1966 0003562 104.9968 255.1274 14.34799874265691
ORBCOMM FM38 [-]        
1 33060U 08031A   24052.76598351  .00002275  00000+0  34861-3 0  9991
2 33060  48.4411  81.6181 0004781 140.7018 219.4243 14.76983220843486
ORBCOMM FM41 [-]        
1 33061U 08031B   24052.82936041  .00002013  00000+0  31368-3 0  9990
2 33061  48.4446  87.7566 0003866 125.8097  44.4038 14.76722034842990
ORBCOMM FM29 [-]        
1 33062U 08031C   24052.88129477  .00002137  00000+0  33181-3 0  9996
2 33062  48.4396  95.5359 0005674 123.4644  46.8329 14.76638720842912
ORBCOMM FM39 [-]        
1 33063U 08031D   24053.16986859  .00001848  00000+0  29708-3 0  9992
2 33063  48.4406 114.1185 0006579  98.2757 261.8903 14.75712019843088
